IRIDIUM 116             
1 43072U 17083C   24123.87744259  .00000038  00000+0  65109-5 0  9999
2 43072  86.3919 286.0147 0002033  94.9348 265.2080 14.34218057333048
IRIDIUM 130             
1 43073U 17083D   24123.49688310  .00000154  00000+0  47768-4 0  9992
2 43073  86.3925 286.3742 0002084  88.4284 271.7150 14.34215951332930
IRIDIUM 151             
1 43074U 17083E   24123.54128078  .00000241  00000+0  78963-4 0  9997
2 43074  86.3920 286.1956 0002448  99.4169 260.7304 14.34220607332965
IRIDIUM 134             
1 43075U 17083F   24123.50957048  .00000193  00000+0  61742-4 0  9994
2 43075  86.3922 286.2067 0002021  88.7069 271.4358 14.34216399332926
IRIDIUM 137             
1 43076U 17083G   24123.52225682  .00000174  00000+0  55243-4 0  9997
2 43076  86.3923 286.2784 0002112 104.1909 255.9521 14.34217999332994
IRIDIUM 141             
1 43077U 17083H   24123.51591558  .00000018  00000+0 -55147-6 0  9998
2 43077  86.3915 286.1557 0002137  92.5445 267.5995 14.34217774332990
IRIDIUM 153             
1 43078U 17083J   24123.60763919  .00000342  00000+0  11496-3 0  9996
2 43078  86.3963 254.5552 0002612  90.4962 269.6533 14.34216033334111
IRIDIUM 131             
1 43079U 17083K   24123.85207252  .00000084  00000+0  22782-4 0  9991
2 43079  86.3923 286.1492 0002147  97.2085 262.9354 14.34218296332978
